OBJECT_NAME,OBJECT_ID,EPOCH,MEAN_MOTION,ECCENTRICITY,INCLINATION,RA_OF_ASC_NODE,ARG_OF_PERICENTER,MEAN_ANOMALY,EPHEMERIS_TYPE,CLASSIFICATION_TYPE,NORAD_CAT_ID,ELEMENT_SET_NO,REV_AT_EPOCH,BSTAR,MEAN_MOTION_DOT,MEAN_MOTION_DDOT
STARLINK-2591,2021-038J,2026-06-17T13:11:18.417408,15.31699127,.0001138,53.1585,253.5879,91.1957,268.9174,0,U,48361,999,28237,.20004E-3,.5847E-4,0
STARLINK-2578,2021-038K,2026-06-18T05:24:27.407808,15.31704454,.0001043,53.1578,250.4341,77.5484,282.5634,0,U,48362,999,28248,.91507E-4,.2476E-4,0
STARLINK-2611,2021-038M,2026-06-18T05:27:14.292000,15.31704636,.000147,53.1574,240.0799,70.6397,289.4764,0,U,48364,999,28263,.25916E-4,.439E-5,0
STARLINK-2608,2021-038N,2026-06-18T11:22:58.471104,15.31707121,.0000882,53.1584,238.9927,84.8353,275.2749,0,U,48365,999,28267,.85393E-4,.2286E-4,0
STARLINK-2643,2021-038Q,2026-06-18T10:48:55.531872,15.31700325,.0001002,53.1589,236.6428,59.2213,300.8887,0,U,48367,999,28269,.30099E-4,.569E-5,0
STARLINK-2623,2021-038R,2026-06-18T11:56:37.188960,15.31702346,.0001215,53.1595,239.3981,80.1056,280.0082,0,U,48368,999,28266,.55522E-4,.1358E-4,0
STARLINK-2621,2021-038T,2026-06-18T11:36:21.584160,15.31706248,.0001263,53.1580,238.8524,87.7299,272.3847,0,U,48370,999,28266,.44776E-4,.1025E-4,0
STARLINK-2589,2021-038U,2026-06-18T11:49:48.800352,15.31705930,.0001384,53.1571,238.9451,69.3377,290.7773,0,U,48371,999,28266,.77683E-4,.2046E-4,0
STARLINK-2609,2021-038W,2026-06-18T16:51:22.269312,15.31699524,.0001163,53.1576,235.5609,67.8705,292.2419,0,U,48373,999,28273,.14779E-4,.94E-6,0
STARLINK-2604,2021-038X,2026-06-18T11:16:14.241792,15.31705594,.0001059,53.1568,238.9411,82.9957,277.1165,0,U,48374,999,28266,.77221E-4,.2032E-4,0
STARLINK-2603,2021-038Y,2026-06-18T11:16:43.336992,15.31703565,.0001277,53.1605,238.9679,75.9920,284.1223,0,U,48375,999,28266,.32827E-4,.654E-5,0
STARLINK-2610,2021-038Z,2026-06-18T15:46:47.301888,15.68233982,.0002468,53.1565,232.3064,20.6883,339.4233,0,U,48376,999,28277,.54283E-3,.61773E-3,0
STARLINK-2499,2021-038AA,2026-06-18T11:09:32.277024,15.31708489,.0001288,53.1586,239.0404,84.3854,275.7294,0,U,48377,999,28266,.6794E-4,.1744E-4,0
STARLINK-2526,2021-038AB,2026-06-18T05:13:51.693024,15.31703914,.00011294,53.1580,240.3478,83.9669,276.1461,0,U,48378,999,28262,.51719772E-4,.124E-4,0
STARLINK-2612,2021-038AC,2026-06-18T10:42:17.362656,15.31702323,.0001191,53.1593,237.0196,47.9732,312.1370,0,U,48379,999,28269,.44356E-4,.1012E-4,0
STARLINK-2614,2021-038AD,2026-06-18T10:55:40.583712,15.31703350,.0001337,53.1588,236.8568,72.5488,287.5659,0,U,48380,999,28269,.24303E-4,.389E-5,0
STARLINK-2630,2021-038AE,2026-06-17T12:33:55.107936,15.31731935,.0001323,53.1587,243.9169,64.5664,295.5475,0,U,48381,999,28251,.31174E-3,.933E-4,0
STARLINK-2585,2021-038AF,2026-06-18T04:27:19.151712,15.31700897,.00015013,53.1592,240.2724,63.4435,296.6720,0,U,48382,999,28262,.64289188E-4,.163E-4,0
STARLINK-2598,2021-038AJ,2026-06-18T11:02:21.018336,15.31703168,.0001281,53.1604,236.6251,85.6726,274.4421,0,U,48385,999,28392,.24474E-4,.394E-5,0
STARLINK-2606,2021-038AK,2026-06-17T12:32:53.312064,15.31707921,.0001429,53.1585,241.1095,82.5358,277.5805,0,U,48386,999,28254,.11578E-3,.323E-4,0
STARLINK-2594,2021-038AM,2026-06-17T11:05:36.081024,15.31705745,.00014341,53.1588,241.1767,83.9530,276.1635,0,U,48388,999,28254,.59373853E-4,.1478E-4,0
STARLINK-2586,2021-038AP,2026-06-18T10:37:49.125216,15.31702884,.00011,53.1569,223.9406,87.0796,273.0331,0,U,48390,999,28409,.60746E-5,-.177E-5,0
STARLINK-2607,2021-038AQ,2026-06-17T11:48:16.101792,15.31693477,.00015242,53.1602,228.7198,94.8717,265.2459,0,U,48391,999,28394,.9185604E-5,-.8E-6,0
STARLINK-2605,2021-038AR,2026-06-18T07:03:02.154816,15.31702233,.0001292,53.1595,224.5274,82.0098,278.1050,0,U,48392,999,28407,.33243E-4,.667E-5,0
STARLINK-2574,2021-038AU,2026-06-18T10:31:33.025152,15.31705074,.0001179,53.1593,226.2125,82.2998,277.8137,0,U,48395,999,28406,.89918E-4,.2427E-4,0
STARLINK-2575,2021-038AV,2026-06-17T10:21:23.702112,15.31707863,.00013303,53.1583,228.5000,88.1983,271.9171,0,U,48396,999,28394,.71670776E-4,.186E-4,0
STARLINK-2590,2021-038AW,2026-06-18T10:04:15.498048,15.31699179,.000099,53.1578,224.0309,61.2891,298.8210,0,U,48397,999,28409,.47313E-4,.1103E-4,0
STARLINK-2588,2021-038AX,2026-06-18T11:41:22.346016,15.20733077,.0004314,53.0735,238.5149,48.0826,312.0536,0,U,48398,999,28387,.93388E-3,.20544E-3,0
STARLINK-2587,2021-038AY,2026-06-17T10:14:41.215488,15.31697335,.00012643,53.1571,228.5867,76.1912,283.9230,0,U,48399,999,28393,-.78997551E-4,-.2815E-4,0
STARLINK-2576,2021-038AZ,2026-06-18T10:17:44.679840,15.31692321,.000111,53.1590,224.2099,79.6424,280.4702,0,U,48400,999,28287,.28767E-6,-.356E-5,0
