[ {"name": "STARLINK-2591", "line1": "1 48361U 21038J   26168.54951872  .00005847  00000+0  20004-3 0  9992", "line2": "2 48361  53.1585 253.5879 0001138  91.1957 268.9174 15.31699127282378"}, {"name": "STARLINK-2578", "line1": "1 48362U 21038K   26169.22531722  .00002476  00000+0  91507-4 0  9999", "line2": "2 48362  53.1578 250.4341 0001043  77.5484 282.5634 15.31704454282484"}, {"name": "STARLINK-2611", "line1": "1 48364U 21038M   26169.22724875  .00000439  00000+0  25916-4 0  9992", "line2": "2 48364  53.1574 240.0799 0001470  70.6397 289.4764 15.31704636282634"}, {"name": "STARLINK-2608", "line1": "1 48365U 21038N   26169.47428786  .00002286  00000+0  85393-4 0  9999", "line2": "2 48365  53.1584 238.9927 0000882  84.8353 275.2749 15.31707121282672"}, {"name": "STARLINK-2643", "line1": "1 48367U 21038Q   26169.45064273  .00000569  00000+0  30099-4 0  9991", "line2": "2 48367  53.1589 236.6428 0001002  59.2213 300.8887 15.31700325282695"}, {"name": "STARLINK-2623", "line1": "1 48368U 21038R   26169.49765265  .00001358  00000+0  55522-4 0  9990", "line2": "2 48368  53.1595 239.3981 0001215  80.1056 280.0082 15.31702346282669"}, {"name": "STARLINK-2621", "line1": "1 48370U 21038T   26169.48358315  .00001025  00000+0  44776-4 0  9996", "line2": "2 48370  53.1580 238.8524 0001263  87.7299 272.3847 15.31706248282666"}, {"name": "STARLINK-2589", "line1": "1 48371U 21038U   26169.49292593  .00002046  00000+0  77683-4 0  9990", "line2": "2 48371  53.1571 238.9451 0001384  69.3377 290.7773 15.31705930282663"}, {"name": "STARLINK-2609", "line1": "1 48373U 21038W   26169.70234108  .00000094  00000+0  14779-4 0  9992", "line2": "2 48373  53.1576 235.5609 0001163  67.8705 292.2419 15.31699524282734"}, {"name": "STARLINK-2604", "line1": "1 48374U 21038X   26169.46960928  .00002032  00000+0  77221-4 0  9997", "line2": "2 48374  53.1568 238.9411 0001059  82.9957 277.1165 15.31705594282662"}, {"name": "STARLINK-2603", "line1": "1 48375U 21038Y   26169.46994603  .00000654  00000+0  32827-4 0  9996", "line2": "2 48375  53.1605 238.9679 0001277  75.9920 284.1223 15.31703565282664"}, {"name": "STARLINK-2610", "line1": "1 48376U 21038Z   26169.65749192  .00061773  00000+0  54283-3 0  9997", "line2": "2 48376  53.1565 232.3064 0002468  20.6883 339.4233 15.68233982282772"}, {"name": "STARLINK-2499", "line1": "1 48377U 21038AA  26169.46495691  .00001744  00000+0  67940-4 0  9996", "line2": "2 48377  53.1586 239.0404 0001288  84.3854 275.7294 15.31708489282668"}, {"name": "STARLINK-2526", "line1": "1 48378U 21038AB  26169.21795941  .00001240  00000+0  51720-4 0  9991", "line2": "2 48378  53.1580 240.3478 0001129  83.9669 276.1461 15.31703914282627"}, {"name": "STARLINK-2612", "line1": "1 48379U 21038AC  26169.44603429  .00001012  00000+0  44356-4 0  9990", "line2": "2 48379  53.1593 237.0196 0001191  47.9732 312.1370 15.31702323282692"}, {"name": "STARLINK-2614", "line1": "1 48380U 21038AD  26169.45533083  .00000389  00000+0  24303-4 0  9997", "line2": "2 48380  53.1588 236.8568 0001337  72.5488 287.5659 15.31703350282698"}, {"name": "STARLINK-2630", "line1": "1 48381U 21038AE  26168.52355449  .00009330  00000+0  31174-3 0  9991", "line2": "2 48381  53.1587 243.9169 0001323  64.5664 295.5475 15.31731935282512"}, {"name": "STARLINK-2585", "line1": "1 48382U 21038AF  26169.18563833  .00001630  00000+0  64289-4 0  9992", "line2": "2 48382  53.1592 240.2724 0001501  63.4435 296.6720 15.31700897282628"}, {"name": "STARLINK-2598", "line1": "1 48385U 21038AJ  26169.45996549  .00000394  00000+0  24474-4 0  9997", "line2": "2 48385  53.1604 236.6251 0001281  85.6726 274.4421 15.31703168283923"}, {"name": "STARLINK-2606", "line1": "1 48386U 21038AK  26168.52283926  .00003230  00000+0  11578-3 0  9995", "line2": "2 48386  53.1585 241.1095 0001429  82.5358 277.5805 15.31707921282548"}, {"name": "STARLINK-2594", "line1": "1 48388U 21038AM  26168.46222316  .00001478  00000+0  59374-4 0  9995", "line2": "2 48388  53.1588 241.1767 0001434  83.9530 276.1635 15.31705745282540"}, {"name": "STARLINK-2586", "line1": "1 48390U 21038AP  26169.44292969 -.00000177  00000+0  60746-5 0  9990", "line2": "2 48390  53.1569 223.9406 0001100  87.0796 273.0331 15.31702884284091"}, {"name": "STARLINK-2607", "line1": "1 48391U 21038AQ  26168.49185303 -.00000080  00000+0  91856-5 0  9997", "line2": "2 48391  53.1602 228.7198 0001524  94.8717 265.2459 15.31693477283944"}, {"name": "STARLINK-2605", "line1": "1 48392U 21038AR  26169.29377494  .00000667  00000+0  33243-4 0  9996", "line2": "2 48392  53.1595 224.5274 0001292  82.0098 278.1050 15.31702233284074"}, {"name": "STARLINK-2574", "line1": "1 48395U 21038AU  26169.43857668  .00002427  00000+0  89918-4 0  9997", "line2": "2 48395  53.1593 226.2125 0001179  82.2998 277.8137 15.31705074284061"}, {"name": "STARLINK-2575", "line1": "1 48396U 21038AV  26168.43152433  .00001860  00000+0  71671-4 0  9992", "line2": "2 48396  53.1583 228.5000 0001330  88.1983 271.9171 15.31707863283943"}, {"name": "STARLINK-2590", "line1": "1 48397U 21038AW  26169.41962382  .00001103  00000+0  47313-4 0  9990", "line2": "2 48397  53.1578 224.0309 0000990  61.2891 298.8210 15.31699179284091"}, {"name": "STARLINK-2588", "line1": "1 48398U 21038AX  26169.48706419  .00020544  00000+0  93388-3 0  9997", "line2": "2 48398  53.0735 238.5149 0004314  48.0826 312.0536 15.20733077283872"}, {"name": "STARLINK-2587", "line1": "1 48399U 21038AY  26168.42686592 -.00002815  00000+0 -78998-4 0  9994", "line2": "2 48399  53.1571 228.5867 0001264  76.1912 283.9230 15.31697335283939"}, {"name": "STARLINK-2576", "line1": "1 48400U 21038AZ  26169.42898935 -.00000356  00000+0  28767-6 0  9992", "line2": "2 48400  53.1590 224.2099 0001110  79.6424 280.4702 15.31692321282877"}]